{
  "_updated_at": "2026-04-11T04:24:23Z",
  "_source": "Celestrak GP / GitHub Actions auto-update",
  "_update_interval": "daily at UTC 02:00",
  "_warnings": [],
  "satellites": [
    {
      "name": "SES-12",
      "catnr": 43488,
      "orbit": "GEO",
      "line0": "SES-12",
      "line1": "1 43488U 18049A   26100.45461374 -.00000268  00000+0  00000+0 0  9997",
      "line2": "2 43488   0.0353  40.9703 0001468 269.5971 146.7844  1.00271214 28744"
    },
    {
      "name": "SES-14",
      "catnr": 43175,
      "orbit": "GEO",
      "line0": "SES-14",
      "line1": "1 43175U 18012B   26099.94261597 -.00000277  00000+0  00000+0 0  9996",
      "line2": "2 43175   0.0114  94.8311 0000992 297.1803  98.0191  1.00271881  6343"
    },
    {
      "name": "SES-15",
      "catnr": 42709,
      "orbit": "GEO",
      "line0": "SES-15",
      "line1": "1 42709U 17026A   26099.71257197  .00000060  00000+0  00000+0 0  9997",
      "line2": "2 42709   0.0277 317.5853 0001199  75.1242 292.6294  1.00278835  6748"
    },
    {
      "name": "SES-17",
      "catnr": 49332,
      "orbit": "GEO",
      "line0": "SES-17",
      "line1": "1 49332U 21095A   26100.50917109 -.00000271  00000+0  00000+0 0  9998",
      "line2": "2 49332   0.0131  86.6321 0000800 317.3273 270.9835  1.00272607 17173"
    },
    {
      "name": "AMC-9",
      "catnr": 27820,
      "orbit": "GEO",
      "line0": "AMC-9 (GE-12)",
      "line1": "1 27820U 03024A   26100.26515060 -.00000277  00000+0  00000+0 0  9997",
      "line2": "2 27820   7.7507  66.4991 0018207 342.4865  25.8875  0.99035011 83321"
    },
    {
      "name": "NSS-12",
      "catnr": 36032,
      "orbit": "GEO",
      "line0": "NSS-12",
      "line1": "1 36032U 09058A   26100.46247359  .00000072  00000+0  00000+0 0  9992",
      "line2": "2 36032   0.0844  66.6745 0004540 300.1486  55.3681  1.00278302 60233"
    },
    {
      "name": "O3b mPOWER F1",
      "catnr": 54755,
      "orbit": "MEO",
      "line0": "O3B MPOWER F1",
      "line1": "1 54755U 22174A   26099.59313288 -.00000022  00000+0  00000+0 0  9990",
      "line2": "2 54755   0.0618 348.6921 0005688  47.9839 345.2361  5.00114891 61924"
    },
    {
      "name": "O3b mPOWER F2",
      "catnr": 54756,
      "orbit": "MEO",
      "line0": "O3B MPOWER F2",
      "line1": "1 54756U 22174B   26099.94740122 -.00000022  00000+0  00000+0 0  9991",
      "line2": "2 54756   0.0586 345.9930 0005949  31.7511 342.2762  5.00115500 62030"
    },
    {
      "name": "O3b mPOWER F3",
      "catnr": 56368,
      "orbit": "MEO",
      "line0": "O3B MPOWER F3",
      "line1": "1 56368U 23059B   26100.24491607 -.00000021  00000+0  00000+0 0  9991",
      "line2": "2 56368   0.0656   3.9270 0006616  18.9441 337.1578  5.00116755 51329"
    },
    {
      "name": "O3b mPOWER F4",
      "catnr": 56367,
      "orbit": "MEO",
      "line0": "O3B MPOWER F4",
      "line1": "1 56367U 23059A   26099.81184328 -.00000022  00000+0  00000+0 0  9990",
      "line2": "2 56367   0.0645   4.0510 0007092  28.6364 327.3559  5.00116079 55183"
    },
    {
      "name": "O3b mPOWER F5",
      "catnr": 58346,
      "orbit": "MEO",
      "line0": "O3B MPOWER F5",
      "line1": "1 58346U 23175A   26099.94582730 -.00000022  00000+0  00000+0 0  9991",
      "line2": "2 58346   0.0433   9.8242 0004326  19.9678 330.2321  5.00115690 46021"
    },
    {
      "name": "O3b mPOWER F6",
      "catnr": 58347,
      "orbit": "MEO",
      "line0": "O3B MPOWER F6",
      "line1": "1 58347U 23175B   26100.04651441 -.00000022  00000+0  00000+0 0  9992",
      "line2": "2 58347   0.0505   5.5660 0004830   3.3008 351.1412  5.00116380 44931"
    }
  ]
}